{
 "type": "FeatureCollection",
 "name": "west-northamptonshire-additional-hmo-licensing-area",
 "crs": {
  "type": "name",
  "properties": {
   "name": "urn:ogc:def:crs:OGC:1.3:CRS84"
  }
 },
 "features": [
  {
   "type": "Feature",
   "geometry": {
    "type": "Polygon",
    "coordinates": [
     [
      [
       -0.881441,
       52.278838
      ],
      [
       -0.882043,
       52.27834
      ],
      [
       -0.882605,
       52.27787
      ],
      [
       -0.8845,
       52.277749
      ],
      [
       -0.885973,
       52.277345
      ],
      [
       -0.887994,
       52.276188
      ],
      [
       -0.888368,
       52.276293
      ],
      [
       -0.88834,
       52.277694
      ],
      [
       -0.891222,
       52.278946
      ],
      [
       -0.894871,
       52.280371
      ],
      [
       -0.898097,
       52.280652
      ],
      [
       -0.898207,
       52.280487
      ],
      [
       -0.898213,
       52.280304
      ],
      [
       -0.898079,
       52.280063
      ],
      [
       -0.89924,
       52.279235
      ],
      [
       -0.899276,
       52.278987
      ],
      [
       -0.899467,
       52.278785
      ],
      [
       -0.901094,
       52.279319
      ],
      [
       -0.904183,
       52.281759
      ],
      [
       -0.906002,
       52.281519
      ],
      [
       -0.907996,
       52.281281
      ],
      [
       -0.909501,
       52.28106
      ],
      [
       -0.911878,
       52.280825
      ],
      [
       -0.916029,
       52.280777
      ],
      [
       -0.921792,
       52.280424
      ],
      [
       -0.92251,
       52.27663
      ],
      [
       -0.922854,
       52.27577
      ],
      [
       -0.922808,
       52.274768
      ],
      [
       -0.922474,
       52.273878
      ],
      [
       -0.924112,
       52.273621
      ],
      [
       -0.924716,
       52.27283
      ],
      [
       -0.92525,
       52.272671
      ],
      [
       -0.924623,
       52.271726
      ],
      [
       -0.926147,
       52.271442
      ],
      [
       -0.92824,
       52.271179
      ],
      [
       -0.929085,
       52.269962
      ],
      [
       -0.929011,
       52.269934
      ],
      [
       -0.929628,
       52.270113
      ],
      [
       -0.931034,
       52.270561
      ],
      [
       -0.932318,
       52.270989
      ],
      [
       -0.932424,
       52.270776
      ],
      [
       -0.932445,
       52.270719
      ],
      [
       -0.932618,
       52.270048
      ],
      [
       -0.932912,
       52.26902
      ],
      [
       -0.93716,
       52.26918
      ],
      [
       -0.939135,
       52.267523
      ],
      [
       -0.939962,
       52.266871
      ],
      [
       -0.940553,
       52.266487
      ],
      [
       -0.94147,
       52.265822
      ],
      [
       -0.943138,
       52.26464
      ],
      [
       -0.944142,
       52.26395
      ],
      [
       -0.944838,
       52.263424
      ],
      [
       -0.945278,
       52.263684
      ],
      [
       -0.94611,
       52.264061
      ],
      [
       -0.946187,
       52.264052
      ],
      [
       -0.947175,
       52.263891
      ],
      [
       -0.948546,
       52.263627
      ],
      [
       -0.949587,
       52.263405
      ],
      [
       -0.951423,
       52.262919
      ],
      [
       -0.952668,
       52.262572
      ],
      [
       -0.954344,
       52.262114
      ],
      [
       -0.954872,
       52.26203
      ],
      [
       -0.955043,
       52.261955
      ],
      [
       -0.95657,
       52.26173
      ],
      [
       -0.958057,
       52.261489
      ],
      [
       -0.958531,
       52.261429
      ],
      [
       -0.959353,
       52.261098
      ],
      [
       -0.960036,
       52.260835
      ],
      [
       -0.960421,
       52.260549
      ],
      [
       -0.960701,
       52.260277
      ],
      [
       -0.96096,
       52.260024
      ],
      [
       -0.961091,
       52.259903
      ],
      [
       -0.961568,
       52.2596
      ],
      [
       -0.961759,
       52.259473
      ],
      [
       -0.962525,
       52.258825
      ],
      [
       -0.962973,
       52.258432
      ],
      [
       -0.963414,
       52.258043
      ],
      [
       -0.96424,
       52.257287
      ],
      [
       -0.965041,
       52.256578
      ],
      [
       -0.965527,
       52.256161
      ],
      [
       -0.965573,
       52.255814
      ],
      [
       -0.966153,
       52.25492
      ],
      [
       -0.966142,
       52.253887
      ],
      [
       -0.966602,
       52.253124
      ],
      [
       -0.967066,
       52.252324
      ],
      [
       -0.968284,
       52.250291
      ],
      [
       -0.967858,
       52.250191
      ],
      [
       -0.96666,
       52.250012
      ],
      [
       -0.965147,
       52.249738
      ],
      [
       -0.96452,
       52.249616
      ],
      [
       -0.965038,
       52.248015
      ],
      [
       -0.965165,
       52.247383
      ],
      [
       -0.965248,
       52.246769
      ],
      [
       -0.96535,
       52.246292
      ],
      [
       -0.964769,
       52.245465
      ],
      [
       -0.964311,
       52.242943
      ],
      [
       -0.964196,
       52.242641
      ],
      [
       -0.964709,
       52.241108
      ],
      [
       -0.964627,
       52.240921
      ],
      [
       -0.964902,
       52.240833
      ],
      [
       -0.966127,
       52.240679
      ],
      [
       -0.96678,
       52.240622
      ],
      [
       -0.967578,
       52.240501
      ],
      [
       -0.968149,
       52.240372
      ],
      [
       -0.968692,
       52.240281
      ],
      [
       -0.968874,
       52.240256
      ],
      [
       -0.968924,
       52.240228
      ],
      [
       -0.968885,
       52.240146
      ],
      [
       -0.96881,
       52.240049
      ],
      [
       -0.968782,
       52.239981
      ],
      [
       -0.968773,
       52.239927
      ],
      [
       -0.968787,
       52.239842
      ],
      [
       -0.968793,
       52.239829
      ],
      [
       -0.969245,
       52.239353
      ],
      [
       -0.969288,
       52.239303
      ],
      [
       -0.969339,
       52.239228
      ],
      [
       -0.969373,
       52.239135
      ],
      [
       -0.969309,
       52.238926
      ],
      [
       -0.969365,
       52.238848
      ],
      [
       -0.969367,
       52.238818
      ],
      [
       -0.969363,
       52.238787
      ],
      [
       -0.9692,
       52.238638
      ],
      [
       -0.969009,
       52.238398
      ],
      [
       -0.968851,
       52.23827
      ],
      [
       -0.968799,
       52.238251
      ],
      [
       -0.968771,
       52.238233
      ],
      [
       -0.968756,
       52.238216
      ],
      [
       -0.968747,
       52.238193
      ],
      [
       -0.968757,
       52.23815
      ],
      [
       -0.968863,
       52.238004
      ],
      [
       -0.968795,
       52.237723
      ],
      [
       -0.968699,
       52.237424
      ],
      [
       -0.968677,
       52.23723
      ],
      [
       -0.96871,
       52.237138
      ],
      [
       -0.968753,
       52.237045
      ],
      [
       -0.968968,
       52.23682
      ],
      [
       -0.969551,
       52.236298
      ],
      [
       -0.969662,
       52.236124
      ],
      [
       -0.969893,
       52.236025
      ],
      [
       -0.969925,
       52.23585
      ],
      [
       -0.97014,
       52.235803
      ],
      [
       -0.970129,
       52.235704
      ],
      [
       -0.970191,
       52.23562
      ],
      [
       -0.970219,
       52.235468
      ],
      [
       -0.970292,
       52.235365
      ],
      [
       -0.970508,
       52.23528
      ],
      [
       -0.97103,
       52.234999
      ],
      [
       -0.970543,
       52.23497
      ],
      [
       -0.970149,
       52.235024
      ],
      [
       -0.969409,
       52.235238
      ],
      [
       -0.968948,
       52.235344
      ],
      [
       -0.968311,
       52.235463
      ],
      [
       -0.96784,
       52.235506
      ],
      [
       -0.967138,
       52.235538
      ],
      [
       -0.966485,
       52.235496
      ],
      [
       -0.965457,
       52.235397
      ],
      [
       -0.965238,
       52.235384
      ],
      [
       -0.965273,
       52.235256
      ],
      [
       -0.965875,
       52.234513
      ],
      [
       -0.966149,
       52.234192
      ],
      [
       -0.96644,
       52.233684
      ],
      [
       -0.966579,
       52.233437
      ],
      [
       -0.966801,
       52.233028
      ],
      [
       -0.966978,
       52.232731
      ],
      [
       -0.967041,
       52.232585
      ],
      [
       -0.967199,
       52.232165
      ],
      [
       -0.967155,
       52.232026
      ],
      [
       -0.967597,
       52.23179
      ],
      [
       -0.968219,
       52.231408
      ],
      [
       -0.969407,
       52.231204
      ],
      [
       -0.969161,
       52.230443
      ],
      [
       -0.969182,
       52.229909
      ],
      [
       -0.969253,
       52.22912
      ],
      [
       -0.969244,
       52.229019
      ],
      [
       -0.969205,
       52.228917
      ],
      [
       -0.969164,
       52.22885
      ],
      [
       -0.969103,
       52.228767
      ],
      [
       -0.969024,
       52.228677
      ],
      [
       -0.96895,
       52.228604
      ],
      [
       -0.968879,
       52.228544
      ],
      [
       -0.968782,
       52.228472
      ],
      [
       -0.968665,
       52.228396
      ],
      [
       -0.968554,
       52.228333
      ],
      [
       -0.968382,
       52.228252
      ],
      [
       -0.968219,
       52.228197
      ],
      [
       -0.968106,
       52.228169
      ],
      [
       -0.967913,
       52.228129
      ],
      [
       -0.967547,
       52.228058
      ],
      [
       -0.967608,
       52.227947
      ],
      [
       -0.969386,
       52.228134
      ],
      [
       -0.968599,
       52.227329
      ],
      [
       -0.967445,
       52.226109
      ],
      [
       -0.967186,
       52.225853
      ],
      [
       -0.968482,
       52.225489
      ],
      [
       -0.967156,
       52.224206
      ],
      [
       -0.966646,
       52.223001
      ],
      [
       -0.966801,
       52.222994
      ],
      [
       -0.96678,
       52.222524
      ],
      [
       -0.965735,
       52.221344
      ],
      [
       -0.967784,
       52.221189
      ],
      [
       -0.967634,
       52.220357
      ],
      [
       -0.967455,
       52.219602
      ],
      [
       -0.967353,
       52.218988
      ],
      [
       -0.967664,
       52.218684
      ],
      [
       -0.967167,
       52.218491
      ],
      [
       -0.966582,
       52.218251
      ],
      [
       -0.965669,
       52.21783
      ],
      [
       -0.965335,
       52.217682
      ],
      [
       -0.964556,
       52.217348
      ],
      [
       -0.963673,
       52.216951
      ],
      [
       -0.962599,
       52.216544
      ],
      [
       -0.961437,
       52.216079
      ],
      [
       -0.960645,
       52.21572
      ],
      [
       -0.960056,
       52.215472
      ],
      [
       -0.959031,
       52.214988
      ],
      [
       -0.957937,
       52.214548
      ],
      [
       -0.957156,
       52.214247
      ],
      [
       -0.956762,
       52.214098
      ],
      [
       -0.955959,
       52.213809
      ],
      [
       -0.955242,
       52.213509
      ],
      [
       -0.953809,
       52.212974
      ],
      [
       -0.953392,
       52.212813
      ],
      [
       -0.952588,
       52.212455
      ],
      [
       -0.952261,
       52.212329
      ],
      [
       -0.95158,
       52.212072
      ],
      [
       -0.950545,
       52.211697
      ],
      [
       -0.949899,
       52.21153
      ],
      [
       -0.949054,
       52.211286
      ],
      [
       -0.947394,
       52.210763
      ],
      [
       -0.946458,
       52.210551
      ],
      [
       -0.945287,
       52.210231
      ],
      [
       -0.944115,
       52.209925
      ],
      [
       -0.943293,
       52.209725
      ],
      [
       -0.942666,
       52.20956
      ],
      [
       -0.94063,
       52.209139
      ],
      [
       -0.940018,
       52.208966
      ],
      [
       -0.939238,
       52.208811
      ],
      [
       -0.938537,
       52.20866
      ],
      [
       -0.937653,
       52.208443
      ],
      [
       -0.937088,
       52.208287
      ],
      [
       -0.936591,
       52.208128
      ],
      [
       -0.936501,
       52.208098
      ],
      [
       -0.936491,
       52.208095
      ],
      [
       -0.935735,
       52.207827
      ],
      [
       -0.934289,
       52.207396
      ],
      [
       -0.933545,
       52.207166
      ],
      [
       -0.932768,
       52.206915
      ],
      [
       -0.932007,
       52.206693
      ],
      [
       -0.931895,
       52.206658
      ],
      [
       -0.93132,
       52.206455
      ],
      [
       -0.930906,
       52.20632
      ],
      [
       -0.93065,
       52.206223
      ],
      [
       -0.930168,
       52.205997
      ],
      [
       -0.929749,
       52.205821
      ],
      [
       -0.929275,
       52.205639
      ],
      [
       -0.928839,
       52.205501
      ],
      [
       -0.928653,
       52.205433
      ],
      [
       -0.927663,
       52.205035
      ],
      [
       -0.926759,
       52.204648
      ],
      [
       -0.925861,
       52.204273
      ],
      [
       -0.925822,
       52.204256
      ],
      [
       -0.925634,
       52.204178
      ],
      [
       -0.925463,
       52.204048
      ],
      [
       -0.924756,
       52.20375
      ],
      [
       -0.923844,
       52.20338
      ],
      [
       -0.922458,
       52.202792
      ],
      [
       -0.92262,
       52.202626
      ],
      [
       -0.922264,
       52.20247
      ],
      [
       -0.922151,
       52.202419
      ],
      [
       -0.921987,
       52.202539
      ],
      [
       -0.921338,
       52.202266
      ],
      [
       -0.920638,
       52.201936
      ],
      [
       -0.920407,
       52.201796
      ],
      [
       -0.919957,
       52.201545
      ],
      [
       -0.919853,
       52.20149
      ],
      [
       -0.919307,
       52.201227
      ],
      [
       -0.918968,
       52.201041
      ],
      [
       -0.918563,
       52.200803
      ],
      [
       -0.918006,
       52.200465
      ],
      [
       -0.91748,
       52.200178
      ],
      [
       -0.917273,
       52.200054
      ],
      [
       -0.916986,
       52.19987
      ],
      [
       -0.916814,
       52.199757
      ],
      [
       -0.916148,
       52.199294
      ],
      [
       -0.915559,
       52.198906
      ],
      [
       -0.914826,
       52.198372
      ],
      [
       -0.91464,
       52.198245
      ],
      [
       -0.914436,
       52.198108
      ],
      [
       -0.913206,
       52.197293
      ],
      [
       -0.912492,
       52.1968
      ],
      [
       -0.911525,
       52.196196
      ],
      [
       -0.910772,
       52.19567
      ],
      [
       -0.910148,
       52.19537
      ],
      [
       -0.909773,
       52.195053
      ],
      [
       -0.909104,
       52.194558
      ],
      [
       -0.908326,
       52.194073
      ],
      [
       -0.907852,
       52.193732
      ],
      [
       -0.907524,
       52.193497
      ],
      [
       -0.907058,
       52.193222
      ],
      [
       -0.906574,
       52.192972
      ],
      [
       -0.906258,
       52.192758
      ],
      [
       -0.90596,
       52.19254
      ],
      [
       -0.905182,
       52.191951
      ],
      [
       -0.904249,
       52.191205
      ],
      [
       -0.903621,
       52.190808
      ],
      [
       -0.902931,
       52.190379
      ],
      [
       -0.902482,
       52.190122
      ],
      [
       -0.901815,
       52.189759
      ],
      [
       -0.901166,
       52.189428
      ],
      [
       -0.900281,
       52.188909
      ],
      [
       -0.899235,
       52.188379
      ],
      [
       -0.898684,
       52.18812
      ],
      [
       -0.896787,
       52.187221
      ],
      [
       -0.895798,
       52.186797
      ],
      [
       -0.895412,
       52.186619
      ],
      [
       -0.894326,
       52.186108
      ],
      [
       -0.894383,
       52.186239
      ],
      [
       -0.894527,
       52.186493
      ],
      [
       -0.894575,
       52.186653
      ],
      [
       -0.894336,
       52.188079
      ],
      [
       -0.894325,
       52.188179
      ],
      [
       -0.894204,
       52.188608
      ],
      [
       -0.89415,
       52.188904
      ],
      [
       -0.894021,
       52.189216
      ],
      [
       -0.894016,
       52.189217
      ],
      [
       -0.893958,
       52.189233
      ],
      [
       -0.893883,
       52.189308
      ],
      [
       -0.893927,
       52.189356
      ],
      [
       -0.893931,
       52.189359
      ],
      [
       -0.893758,
       52.18961
      ],
      [
       -0.893587,
       52.189884
      ],
      [
       -0.893371,
       52.190174
      ],
      [
       -0.893148,
       52.19044
      ],
      [
       -0.892906,
       52.190759
      ],
      [
       -0.89236,
       52.191601
      ],
      [
       -0.892231,
       52.191897
      ],
      [
       -0.892116,
       52.192119
      ],
      [
       -0.892035,
       52.192438
      ],
      [
       -0.891981,
       52.193089
      ],
      [
       -0.891979,
       52.193393
      ],
      [
       -0.891988,
       52.193546
      ],
      [
       -0.892068,
       52.193825
      ],
      [
       -0.892078,
       52.194046
      ],
      [
       -0.892076,
       52.194318
      ],
      [
       -0.892119,
       52.194698
      ],
      [
       -0.892171,
       52.195629
      ],
      [
       -0.892293,
       52.196956
      ],
      [
       -0.891895,
       52.196994
      ],
      [
       -0.891534,
       52.197166
      ],
      [
       -0.891383,
       52.19719
      ],
      [
       -0.891286,
       52.197194
      ],
      [
       -0.891177,
       52.197213
      ],
      [
       -0.891086,
       52.197249
      ],
      [
       -0.890915,
       52.197346
      ],
      [
       -0.890829,
       52.197442
      ],
      [
       -0.890743,
       52.197514
      ],
      [
       -0.890591,
       52.197557
      ],
      [
       -0.890365,
       52.197596
      ],
      [
       -0.889848,
       52.197716
      ],
      [
       -0.889365,
       52.197772
      ],
      [
       -0.889218,
       52.197773
      ],
      [
       -0.889015,
       52.197743
      ],
      [
       -0.888818,
       52.197725
      ],
      [
       -0.888677,
       52.197689
      ],
      [
       -0.888591,
       52.197654
      ],
      [
       -0.88837,
       52.197542
      ],
      [
       -0.888274,
       52.197487
      ],
      [
       -0.88819,
       52.19745
      ],
      [
       -0.8881,
       52.197419
      ],
      [
       -0.887938,
       52.19738
      ],
      [
       -0.88765,
       52.197334
      ],
      [
       -0.887463,
       52.197325
      ],
      [
       -0.887243,
       52.197275
      ],
      [
       -0.887182,
       52.197269
      ],
      [
       -0.887112,
       52.197249
      ],
      [
       -0.887077,
       52.19723
      ],
      [
       -0.887044,
       52.197201
      ],
      [
       -0.887025,
       52.197169
      ],
      [
       -0.887028,
       52.197075
      ],
      [
       -0.887012,
       52.197029
      ],
      [
       -0.886991,
       52.196995
      ],
      [
       -0.886938,
       52.196956
      ],
      [
       -0.886899,
       52.196939
      ],
      [
       -0.8868,
       52.196918
      ],
      [
       -0.886602,
       52.196862
      ],
      [
       -0.886445,
       52.196831
      ],
      [
       -0.886349,
       52.196801
      ],
      [
       -0.886267,
       52.196766
      ],
      [
       -0.886135,
       52.196687
      ],
      [
       -0.886081,
       52.196647
      ],
      [
       -0.885974,
       52.196548
      ],
      [
       -0.885916,
       52.196508
      ],
      [
       -0.885864,
       52.196479
      ],
      [
       -0.885724,
       52.19642
      ],
      [
       -0.885546,
       52.196307
      ],
      [
       -0.885062,
       52.195902
      ],
      [
       -0.884908,
       52.195785
      ],
      [
       -0.884832,
       52.195737
      ],
      [
       -0.884753,
       52.19569
      ],
      [
       -0.884325,
       52.19553
      ],
      [
       -0.884155,
       52.19547
      ],
      [
       -0.883958,
       52.195414
      ],
      [
       -0.883797,
       52.1954
      ],
      [
       -0.883588,
       52.19541
      ],
      [
       -0.8834,
       52.195474
      ],
      [
       -0.883352,
       52.195535
      ],
      [
       -0.883336,
       52.195573
      ],
      [
       -0.883327,
       52.195643
      ],
      [
       -0.883234,
       52.195735
      ],
      [
       -0.8832,
       52.195754
      ],
      [
       -0.883152,
       52.195771
      ],
      [
       -0.883096,
       52.195778
      ],
      [
       -0.883036,
       52.195774
      ],
      [
       -0.882973,
       52.19576
      ],
      [
       -0.88292,
       52.195741
      ],
      [
       -0.882898,
       52.195728
      ],
      [
       -0.88288,
       52.19567
      ],
      [
       -0.883,
       52.195567
      ],
      [
       -0.882876,
       52.195431
      ],
      [
       -0.882831,
       52.195318
      ],
      [
       -0.882739,
       52.195234
      ],
      [
       -0.882706,
       52.195221
      ],
      [
       -0.882649,
       52.195209
      ],
      [
       -0.882591,
       52.19521
      ],
      [
       -0.882536,
       52.195225
      ],
      [
       -0.882491,
       52.195252
      ],
      [
       -0.882464,
       52.195283
      ],
      [
       -0.882456,
       52.195315
      ],
      [
       -0.882469,
       52.195352
      ],
      [
       -0.882502,
       52.1954
      ],
      [
       -0.882575,
       52.195473
      ],
      [
       -0.882585,
       52.195502
      ],
      [
       -0.882581,
       52.195527
      ],
      [
       -0.882566,
       52.19555
      ],
      [
       -0.882542,
       52.195569
      ],
      [
       -0.882504,
       52.195583
      ],
      [
       -0.882455,
       52.195594
      ],
      [
       -0.882397,
       52.1956
      ],
      [
       -0.882297,
       52.195599
      ],
      [
       -0.882008,
       52.195642
      ],
      [
       -0.881904,
       52.19565
      ],
      [
       -0.881582,
       52.195619
      ],
      [
       -0.881533,
       52.195608
      ],
      [
       -0.881487,
       52.195592
      ],
      [
       -0.881458,
       52.195576
      ],
      [
       -0.881405,
       52.195521
      ],
      [
       -0.881395,
       52.195497
      ],
      [
       -0.881397,
       52.195474
      ],
      [
       -0.881414,
       52.195448
      ],
      [
       -0.881444,
       52.195428
      ],
      [
       -0.881524,
       52.1954
      ],
      [
       -0.881543,
       52.195386
      ],
      [
       -0.881567,
       52.19535
      ],
      [
       -0.881562,
       52.195316
      ],
      [
       -0.881531,
       52.195283
      ],
      [
       -0.881424,
       52.195244
      ],
      [
       -0.881395,
       52.195228
      ],
      [
       -0.881366,
       52.195202
      ],
      [
       -0.881213,
       52.194995
      ],
      [
       -0.881129,
       52.194969
      ],
      [
       -0.88103,
       52.194959
      ],
      [
       -0.880963,
       52.194944
      ],
      [
       -0.880878,
       52.194939
      ],
      [
       -0.880768,
       52.194958
      ],
      [
       -0.880671,
       52.194996
      ],
      [
       -0.880609,
       52.19501
      ],
      [
       -0.880497,
       52.195022
      ],
      [
       -0.880213,
       52.19503
      ],
      [
       -0.880165,
       52.195036
      ],
      [
       -0.879977,
       52.195069
      ],
      [
       -0.879885,
       52.195105
      ],
      [
       -0.87981,
       52.195129
      ],
      [
       -0.879687,
       52.195169
      ],
      [
       -0.879459,
       52.195227
      ],
      [
       -0.879254,
       52.195251
      ],
      [
       -0.879113,
       52.195259
      ],
      [
       -0.879049,
       52.195258
      ],
      [
       -0.878955,
       52.195246
      ],
      [
       -0.878757,
       52.195211
      ],
      [
       -0.878189,
       52.195067
      ],
      [
       -0.878194,
       52.195231
      ],
      [
       -0.87812,
       52.195611
      ],
      [
       -0.878112,
       52.195718
      ],
      [
       -0.878117,
       52.196008
      ],
      [
       -0.878152,
       52.196143
      ],
      [
       -0.878089,
       52.196237
      ],
      [
       -0.877948,
       52.196427
      ],
      [
       -0.877868,
       52.196525
      ],
      [
       -0.877634,
       52.196775
      ],
      [
       -0.877604,
       52.196921
      ],
      [
       -0.877647,
       52.197066
      ],
      [
       -0.877643,
       52.19722
      ],
      [
       -0.877658,
       52.197371
      ],
      [
       -0.877383,
       52.197769
      ],
      [
       -0.87718,
       52.197965
      ],
      [
       -0.877,
       52.198279
      ],
      [
       -0.876942,
       52.198435
      ],
      [
       -0.876849,
       52.1985
      ],
      [
       -0.876661,
       52.198566
      ],
      [
       -0.876334,
       52.198894
      ],
      [
       -0.876099,
       52.199108
      ],
      [
       -0.876016,
       52.199196
      ],
      [
       -0.875941,
       52.199281
      ],
      [
       -0.875876,
       52.199409
      ],
      [
       -0.875779,
       52.199472
      ],
      [
       -0.875619,
       52.199521
      ],
      [
       -0.875525,
       52.199528
      ],
      [
       -0.875443,
       52.199507
      ],
      [
       -0.875342,
       52.199511
      ],
      [
       -0.875157,
       52.199571
      ],
      [
       -0.874978,
       52.199696
      ],
      [
       -0.874901,
       52.199764
      ],
      [
       -0.874706,
       52.199961
      ],
      [
       -0.874665,
       52.199992
      ],
      [
       -0.87462,
       52.200023
      ],
      [
       -0.874295,
       52.200205
      ],
      [
       -0.874197,
       52.200323
      ],
      [
       -0.874078,
       52.200379
      ],
      [
       -0.873923,
       52.200399
      ],
      [
       -0.873789,
       52.20043
      ],
      [
       -0.873513,
       52.200565
      ],
      [
       -0.873382,
       52.200665
      ],
      [
       -0.873307,
       52.200711
      ],
      [
       -0.873226,
       52.200755
      ],
      [
       -0.873032,
       52.200835
      ],
      [
       -0.872896,
       52.20091
      ],
      [
       -0.872758,
       52.200988
      ],
      [
       -0.872502,
       52.201159
      ],
      [
       -0.872142,
       52.201474
      ],
      [
       -0.871811,
       52.201618
      ],
      [
       -0.871569,
       52.201659
      ],
      [
       -0.871039,
       52.201888
      ],
      [
       -0.870612,
       52.202031
      ],
      [
       -0.870372,
       52.202146
      ],
      [
       -0.870221,
       52.202247
      ],
      [
       -0.870064,
       52.202321
      ],
      [
       -0.86984,
       52.20232
      ],
      [
       -0.869661,
       52.202384
      ],
      [
       -0.869416,
       52.202587
      ],
      [
       -0.868972,
       52.202448
      ],
      [
       -0.867496,
       52.203211
      ],
      [
       -0.865059,
       52.204452
      ],
      [
       -0.865495,
       52.204771
      ],
      [
       -0.868646,
       52.205894
      ],
      [
       -0.870004,
       52.205985
      ],
      [
       -0.87124,
       52.205904
      ],
      [
       -0.871148,
       52.206537
      ],
      [
       -0.871409,
       52.207174
      ],
      [
       -0.87144,
       52.207948
      ],
      [
       -0.871639,
       52.209017
      ],
      [
       -0.871573,
       52.209635
      ],
      [
       -0.871132,
       52.210157
      ],
      [
       -0.870569,
       52.210508
      ],
      [
       -0.869529,
       52.210792
      ],
      [
       -0.867384,
       52.210957
      ],
      [
       -0.865919,
       52.211144
      ],
      [
       -0.865439,
       52.211185
      ],
      [
       -0.867661,
       52.21492
      ],
      [
       -0.869009,
       52.216418
      ],
      [
       -0.871873,
       52.218673
      ],
      [
       -0.874058,
       52.219962
      ],
      [
       -0.876083,
       52.221559
      ],
      [
       -0.874272,
       52.22343
      ],
      [
       -0.871518,
       52.226745
      ],
      [
       -0.869363,
       52.230251
      ],
      [
       -0.867423,
       52.231223
      ],
      [
       -0.861879,
       52.233211
      ],
      [
       -0.85569,
       52.234791
      ],
      [
       -0.852087,
       52.235746
      ],
      [
       -0.848666,
       52.237461
      ],
      [
       -0.842339,
       52.241553
      ],
      [
       -0.840229,
       52.242912
      ],
      [
       -0.838651,
       52.243746
      ],
      [
       -0.836833,
       52.244931
      ],
      [
       -0.834327,
       52.245967
      ],
      [
       -0.832261,
       52.246527
      ],
      [
       -0.830502,
       52.246743
      ],
      [
       -0.828426,
       52.246758
      ],
      [
       -0.825665,
       52.246518
      ],
      [
       -0.822269,
       52.246308
      ],
      [
       -0.820503,
       52.2466
      ],
      [
       -0.820386,
       52.246678
      ],
      [
       -0.81959,
       52.24682
      ],
      [
       -0.819575,
       52.246829
      ],
      [
       -0.818907,
       52.247008
      ],
      [
       -0.817951,
       52.247193
      ],
      [
       -0.817368,
       52.247426
      ],
      [
       -0.816875,
       52.247563
      ],
      [
       -0.816261,
       52.247884
      ],
      [
       -0.815023,
       52.248384
      ],
      [
       -0.814265,
       52.248678
      ],
      [
       -0.81368,
       52.24899
      ],
      [
       -0.812822,
       52.249309
      ],
      [
       -0.811858,
       52.249768
      ],
      [
       -0.810039,
       52.250431
      ],
      [
       -0.808844,
       52.250896
      ],
      [
       -0.807317,
       52.25142
      ],
      [
       -0.806531,
       52.251687
      ],
      [
       -0.805515,
       52.251968
      ],
      [
       -0.804611,
       52.252366
      ],
      [
       -0.803448,
       52.252708
      ],
      [
       -0.802416,
       52.253034
      ],
      [
       -0.801591,
       52.253176
      ],
      [
       -0.801345,
       52.253722
      ],
      [
       -0.801254,
       52.254446
      ],
      [
       -0.801281,
       52.25557
      ],
      [
       -0.801134,
       52.256205
      ],
      [
       -0.801174,
       52.256869
      ],
      [
       -0.801241,
       52.257577
      ],
      [
       -0.801043,
       52.257991
      ],
      [
       -0.801538,
       52.258889
      ],
      [
       -0.801471,
       52.259738
      ],
      [
       -0.801428,
       52.260268
      ],
      [
       -0.801497,
       52.260923
      ],
      [
       -0.801534,
       52.261711
      ],
      [
       -0.801824,
       52.262156
      ],
      [
       -0.801889,
       52.26244
      ],
      [
       -0.802697,
       52.262943
      ],
      [
       -0.802954,
       52.263583
      ],
      [
       -0.80286,
       52.264369
      ],
      [
       -0.803181,
       52.26531
      ],
      [
       -0.803468,
       52.265952
      ],
      [
       -0.803319,
       52.266181
      ],
      [
       -0.803089,
       52.266483
      ],
      [
       -0.803137,
       52.266946
      ],
      [
       -0.803427,
       52.267435
      ],
      [
       -0.803777,
       52.26835
      ],
      [
       -0.80469,
       52.269235
      ],
      [
       -0.805466,
       52.270437
      ],
      [
       -0.805698,
       52.270899
      ],
      [
       -0.806871,
       52.271805
      ],
      [
       -0.807705,
       52.272972
      ],
      [
       -0.808219,
       52.273685
      ],
      [
       -0.80876,
       52.274486
      ],
      [
       -0.808761,
       52.275008
      ],
      [
       -0.809143,
       52.275331
      ],
      [
       -0.809733,
       52.275336
      ],
      [
       -0.811249,
       52.275237
      ],
      [
       -0.813718,
       52.275138
      ],
      [
       -0.815035,
       52.274956
      ],
      [
       -0.815326,
       52.275054
      ],
      [
       -0.815801,
       52.275442
      ],
      [
       -0.815904,
       52.275628
      ],
      [
       -0.816273,
       52.275579
      ],
      [
       -0.817402,
       52.275026
      ],
      [
       -0.818985,
       52.274254
      ],
      [
       -0.820055,
       52.27433
      ],
      [
       -0.82071,
       52.274804
      ],
      [
       -0.821909,
       52.27571
      ],
      [
       -0.823066,
       52.276593
      ],
      [
       -0.823903,
       52.277194
      ],
      [
       -0.82493,
       52.278055
      ],
      [
       -0.825009,
       52.278343
      ],
      [
       -0.825402,
       52.278863
      ],
      [
       -0.82669,
       52.279618
      ],
      [
       -0.826973,
       52.280002
      ],
      [
       -0.827072,
       52.280372
      ],
      [
       -0.827281,
       52.28089
      ],
      [
       -0.82843,
       52.280859
      ],
      [
       -0.829189,
       52.28075
      ],
      [
       -0.830187,
       52.280555
      ],
      [
       -0.83134,
       52.280116
      ],
      [
       -0.832049,
       52.279769
      ],
      [
       -0.832471,
       52.27934
      ],
      [
       -0.832712,
       52.278387
      ],
      [
       -0.833166,
       52.277596
      ],
      [
       -0.833383,
       52.277014
      ],
      [
       -0.833678,
       52.276221
      ],
      [
       -0.833998,
       52.275543
      ],
      [
       -0.834126,
       52.275058
      ],
      [
       -0.834372,
       52.274485
      ],
      [
       -0.834448,
       52.274362
      ],
      [
       -0.835754,
       52.274579
      ],
      [
       -0.837262,
       52.274815
      ],
      [
       -0.840115,
       52.275462
      ],
      [
       -0.841705,
       52.275867
      ],
      [
       -0.84251,
       52.27599
      ],
      [
       -0.84334,
       52.276245
      ],
      [
       -0.844372,
       52.276477
      ],
      [
       -0.84468,
       52.276816
      ],
      [
       -0.845107,
       52.277068
      ],
      [
       -0.845449,
       52.277089
      ],
      [
       -0.845395,
       52.277452
      ],
      [
       -0.845289,
       52.278091
      ],
      [
       -0.845221,
       52.278801
      ],
      [
       -0.845039,
       52.279912
      ],
      [
       -0.846519,
       52.280128
      ],
      [
       -0.846573,
       52.280081
      ],
      [
       -0.84756,
       52.279223
      ],
      [
       -0.849313,
       52.277733
      ],
      [
       -0.849341,
       52.277746
      ],
      [
       -0.852219,
       52.279111
      ],
      [
       -0.851485,
       52.280925
      ],
      [
       -0.852445,
       52.281057
      ],
      [
       -0.85291,
       52.281153
      ],
      [
       -0.853639,
       52.281322
      ],
      [
       -0.85465,
       52.281552
      ],
      [
       -0.855814,
       52.281872
      ],
      [
       -0.855836,
       52.281845
      ],
      [
       -0.855942,
       52.281863
      ],
      [
       -0.855819,
       52.281975
      ],
      [
       -0.8557,
       52.28209
      ],
      [
       -0.855787,
       52.282114
      ],
      [
       -0.856017,
       52.282175
      ],
      [
       -0.856485,
       52.282282
      ],
      [
       -0.856889,
       52.282391
      ],
      [
       -0.857133,
       52.282438
      ],
      [
       -0.857194,
       52.282405
      ],
      [
       -0.85746,
       52.282283
      ],
      [
       -0.857834,
       52.282105
      ],
      [
       -0.858195,
       52.28191
      ],
      [
       -0.858616,
       52.281705
      ],
      [
       -0.858991,
       52.281518
      ],
      [
       -0.859482,
       52.281268
      ],
      [
       -0.8598,
       52.281104
      ],
      [
       -0.859804,
       52.281106
      ],
      [
       -0.860513,
       52.280733
      ],
      [
       -0.861027,
       52.280499
      ],
      [
       -0.862123,
       52.279954
      ],
      [
       -0.863129,
       52.279436
      ],
      [
       -0.864829,
       52.278606
      ],
      [
       -0.864858,
       52.278591
      ],
      [
       -0.86509,
       52.278758
      ],
      [
       -0.865517,
       52.279041
      ],
      [
       -0.866077,
       52.279378
      ],
      [
       -0.866451,
       52.279629
      ],
      [
       -0.867179,
       52.280021
      ],
      [
       -0.86745,
       52.280202
      ],
      [
       -0.867828,
       52.280416
      ],
      [
       -0.868181,
       52.280623
      ],
      [
       -0.868285,
       52.280685
      ],
      [
       -0.868481,
       52.280817
      ],
      [
       -0.868657,
       52.280917
      ],
      [
       -0.868825,
       52.280992
      ],
      [
       -0.869065,
       52.281153
      ],
      [
       -0.869581,
       52.281553
      ],
      [
       -0.86989,
       52.281726
      ],
      [
       -0.870389,
       52.281995
      ],
      [
       -0.870573,
       52.282092
      ],
      [
       -0.870739,
       52.282167
      ],
      [
       -0.870909,
       52.28224
      ],
      [
       -0.87132,
       52.282393
      ],
      [
       -0.871765,
       52.282512
      ],
      [
       -0.872001,
       52.282568
      ],
      [
       -0.872147,
       52.282596
      ],
      [
       -0.872292,
       52.282621
      ],
      [
       -0.872643,
       52.282669
      ],
      [
       -0.872953,
       52.282687
      ],
      [
       -0.873189,
       52.282687
      ],
      [
       -0.873603,
       52.282708
      ],
      [
       -0.873939,
       52.282704
      ],
      [
       -0.874393,
       52.282657
      ],
      [
       -0.874857,
       52.282576
      ],
      [
       -0.875021,
       52.282513
      ],
      [
       -0.875386,
       52.282362
      ],
      [
       -0.875757,
       52.282235
      ],
      [
       -0.876222,
       52.282002
      ],
      [
       -0.876794,
       52.28176
      ],
      [
       -0.877015,
       52.28164
      ],
      [
       -0.877533,
       52.281343
      ],
      [
       -0.877858,
       52.281119
      ],
      [
       -0.878088,
       52.281018
      ],
      [
       -0.878235,
       52.280978
      ],
      [
       -0.878608,
       52.280841
      ],
      [
       -0.878917,
       52.280682
      ],
      [
       -0.879255,
       52.280473
      ],
      [
       -0.879495,
       52.280262
      ],
      [
       -0.879646,
       52.280317
      ],
      [
       -0.879793,
       52.280183
      ],
      [
       -0.879932,
       52.280036
      ],
      [
       -0.880086,
       52.279948
      ],
      [
       -0.880173,
       52.279892
      ],
      [
       -0.880353,
       52.279763
      ],
      [
       -0.880717,
       52.27948
      ],
      [
       -0.881441,
       52.278838
      ]
     ]
    ]
   },
   "properties": {
    "gss": "E06000062",
    "council": "West Northamptonshire Council",
    "schemeType": "additional",
    "coverage": "part",
    "inForceStart": "2025-02-24",
    "inForceEnd": "2030-02-23",
    "areaKm2": 70.15,
    "bboxOSGB": [
     470366.0,
     254781.0,
     481932.0,
     265547.0
    ],
    "vertices": 775,
    "source": "Appendix D to the West Northamptonshire Council Cabinet report of 19 November 2024 on Additional HMO Licensing. Two sheets, both carrying the identical polygon: s20317 (district sheet, 1:250,000) and s20318 (Northampton close-up, 1:75,000). Extracted from the 1:75,000 sheet.",
    "sourceUrls": [
     "https://cms.westnorthants.gov.uk/media/25608/download",
     "https://westnorthants.moderngov.co.uk/documents/s20317/Appendix%20D1.pdf",
     "https://westnorthants.moderngov.co.uk/documents/s20318/Appendix%20D2.pdf"
    ],
    "mapTitle": "Additional Houses in Multiple Occupation Licensing Consultation",
    "mapDate": "2024-07-10",
    "mapScale": "1:75,000 @A4",
    "osCopyright": "Contains OS data (c) Crown copyright and database rights 2024, Ordnance Survey licence no. 100063706",
    "method": "The designated area is a single closed vector path (775 vertices, straight segments only) in the PDF content stream, not a raster. Georeferenced from the OS National Grid 1km graticule printed on the sheet: 21 vertical and 13 horizontal gridlines located to sub-pixel precision in the embedded basemap raster by comb correlation at the scale-implied period, then least-squares fitted (residual RMS 0.24px = 1.5m). Absolute grid values read from the printed two-digit labels (eastings 466-486, northings 254-266, OS 100km square SP). A constant calibration shift of dE=-2.00m, dN=+3.75m was then applied, derived by fitting the council boundary that the same PDF draws as a separate vector path against the official ONS Local Authority Districts December 2024 BFC boundary for E06000062.",
    "accuracy": "After calibration the PDF's own drawn council boundary matches the official ONS boundary to a mean of 0.09m and a maximum of 0.31m across 797 independent vertices. Datum shift OSGB36->WGS84 via Inverse of British National Grid + OSGB36 to WGS 84 (9) + axis order change (2D) (stated accuracy 1.0m). Overall positional uncertainty is on the order of 1-2m, far finer than the street-level resolution needed.",
    "sanityChecks": "11/11 postcode in/out tests passed (Castle, Headlands, Hunsbury, Kingsley & Semilong, Upton, Blackthorn & Rectory Farm inside; Daventry town, Harpole/Kislingbury, Moulton, Towcester, Brackley outside). 99.99% of the polygon falls inside the council area (0.0095 km2 outside, boundary generalisation only). The identical polygon on the 1:250,000 district sheet matches by a pure scale factor with zero residual.",
    "caveat": "IMPORTANT: the map is titled 'Proposed HMO Additional Licensing Consultation area' and dated 10-07-2024. It is the map at Appendix D that the Cabinet report and the formal decision minute of 19 November 2024 both identify as defining the designated area, but the sheet itself carries consultation wording. No street list has ever been published and no council address checker exists. Treat as authoritative for the designated area but confirm edge cases with the council.",
    "daventryNote": "The council description 'additional areas in Northampton and Daventry' does NOT mean Daventry town, which is 13km outside the area. It refers to the western extension of the Northampton area into the former Daventry District (Upton, Duston fringe, towards Harpole and Kislingbury). The designation is one single contiguous polygon.",
    "osgb36Ring27700": [
     [
      476408.7,
      265108.6
     ],
     [
      476368.5,
      265052.5
     ],
     [
      476330.9,
      264999.7
     ],
     [
      476201.9,
      264984.2
     ],
     [
      476102.1,
      264937.7
     ],
     [
      475966.1,
      264807.0
     ],
     [
      475940.4,
      264818.2
     ],
     [
      475940.0,
      264974.0
     ],
     [
      475741.2,
      265110.3
     ],
     [
      475489.9,
      265265.0
     ],
     [
      475269.3,
      265292.9
     ],
     [
      475262.1,
      265274.4
     ],
     [
      475262.0,
      265254.1
     ],
     [
      475271.6,
      265227.4
     ],
     [
      475193.7,
      265134.1
     ],
     [
      475191.7,
      265106.5
     ],
     [
      475179.0,
      265083.9
     ],
     [
      475067.1,
      265141.5
     ],
     [
      474852.3,
      265409.7
     ],
     [
      474728.6,
      265381.2
     ],
     [
      474593.0,
      265352.6
     ],
     [
      474490.7,
      265326.5
     ],
     [
      474328.9,
      265297.9
     ],
     [
      474045.8,
      265288.4
     ],
     [
      473653.3,
      265243.2
     ],
     [
      473610.6,
      264820.5
     ],
     [
      473588.5,
      264724.5
     ],
     [
      473593.3,
      264613.1
     ],
     [
      473617.6,
      264514.4
     ],
     [
      473506.2,
      264484.1
     ],
     [
      473466.3,
      264395.6
     ],
     [
      473430.2,
      264377.4
     ],
     [
      473474.5,
      264272.9
     ],
     [
      473371.0,
      264239.8
     ],
     [
      473228.6,
      264208.4
     ],
     [
      473172.9,
      264072.2
     ],
     [
      473178.0,
      264069.1
     ],
     [
      473135.6,
      264088.4
     ],
     [
      473038.9,
      264136.8
     ],
     [
      472950.6,
      264183.2
     ],
     [
      472943.7,
      264159.4
     ],
     [
      472942.4,
      264153.0
     ],
     [
      472931.7,
      264078.2
     ],
     [
      472913.3,
      263963.6
     ],
     [
      472623.2,
      263977.1
     ],
     [
      472491.1,
      263790.8
     ],
     [
      472435.7,
      263717.4
     ],
     [
      472396.0,
      263674.1
     ],
     [
      472334.5,
      263599.2
     ],
     [
      472222.6,
      263466.1
     ],
     [
      472155.2,
      263388.3
     ],
     [
      472108.6,
      263329.1
     ],
     [
      472078.1,
      263357.6
     ],
     [
      472020.7,
      263398.7
     ],
     [
      472015.5,
      263397.6
     ],
     [
      471948.3,
      263378.8
     ],
     [
      471855.2,
      263348.0
     ],
     [
      471784.5,
      263322.3
     ],
     [
      471660.0,
      263266.4
     ],
     [
      471575.6,
      263226.6
     ],
     [
      471461.9,
      263174.0
     ],
     [
      471426.0,
      263164.3
     ],
     [
      471414.5,
      263155.7
     ],
     [
      471310.6,
      263129.2
     ],
     [
      471209.5,
      263100.9
     ],
     [
      471177.3,
      263093.8
     ],
     [
      471121.7,
      263056.2
     ],
     [
      471075.5,
      263026.3
     ],
     [
      471049.7,
      262994.1
     ],
     [
      471031.0,
      262963.5
     ],
     [
      471013.7,
      262935.1
     ],
     [
      471005.0,
      262921.5
     ],
     [
      470972.9,
      262887.4
     ],
     [
      470960.1,
      262873.1
     ],
     [
      470908.8,
      262800.2
     ],
     [
      470878.9,
      262756.1
     ],
     [
      470849.4,
      262712.4
     ],
     [
      470794.2,
      262627.5
     ],
     [
      470740.7,
      262547.8
     ],
     [
      470708.2,
      262501.0
     ],
     [
      470705.6,
      262462.3
     ],
     [
      470667.4,
      262362.3
     ],
     [
      470669.8,
      262247.4
     ],
     [
      470639.6,
      262162.1
     ],
     [
      470609.2,
      262072.7
     ],
     [
      470529.3,
      261845.5
     ],
     [
      470558.5,
      261834.7
     ],
     [
      470640.6,
      261816.0
     ],
     [
      470744.3,
      261787.0
     ],
     [
      470787.3,
      261774.0
     ],
     [
      470754.5,
      261595.4
     ],
     [
      470746.8,
      261525.0
     ],
     [
      470742.1,
      261456.6
     ],
     [
      470735.9,
      261403.5
     ],
     [
      470776.9,
      261312.1
     ],
     [
      470812.2,
      261032.0
     ],
     [
      470820.5,
      260998.5
     ],
     [
      470787.9,
      260827.5
     ],
     [
      470793.8,
      260806.8
     ],
     [
      470775.2,
      260796.7
     ],
     [
      470691.8,
      260778.4
     ],
     [
      470647.3,
      260771.4
     ],
     [
      470593.0,
      260757.2
     ],
     [
      470554.2,
      260742.3
     ],
     [
      470517.3,
      260731.6
     ],
     [
      470504.9,
      260728.6
     ],
     [
      470501.5,
      260725.5
     ],
     [
      470504.3,
      260716.4
     ],
     [
      470509.6,
      260705.8
     ],
     [
      470511.6,
      260698.2
     ],
     [
      470512.3,
      260692.1
     ],
     [
      470511.5,
      260682.8
     ],
     [
      470511.1,
      260681.3
     ],
     [
      470481.0,
      260627.9
     ],
     [
      470478.1,
      260622.3
     ],
     [
      470474.8,
      260614.0
     ],
     [
      470472.6,
      260603.6
     ],
     [
      470477.3,
      260580.4
     ],
     [
      470473.6,
      260571.6
     ],
     [
      470473.5,
      260568.3
     ],
     [
      470473.8,
      260564.9
     ],
     [
      470485.2,
      260548.5
     ],
     [
      470498.6,
      260521.9
     ],
     [
      470509.6,
      260507.9
     ],
     [
      470513.2,
      260505.8
     ],
     [
      470515.1,
      260503.8
     ],
     [
      470516.2,
      260501.9
     ],
     [
      470516.8,
      260499.4
     ],
     [
      470516.2,
      260494.6
     ],
     [
      470509.2,
      260478.3
     ],
     [
      470514.3,
      260447.1
     ],
     [
      470521.3,
      260413.9
     ],
     [
      470523.1,
      260392.3
     ],
     [
      470521.0,
      260382.1
     ],
     [
      470518.2,
      260371.7
     ],
     [
      470503.9,
      260346.5
     ],
     [
      470464.9,
      260287.8
     ],
     [
      470457.6,
      260268.4
     ],
     [
      470442.0,
      260257.1
     ],
     [
      470440.1,
      260237.6
     ],
     [
      470425.5,
      260232.2
     ],
     [
      470426.4,
      260221.2
     ],
     [
      470422.3,
      260211.8
     ],
     [
      470420.6,
      260194.9
     ],
     [
      470415.8,
      260183.3
     ],
     [
      470401.2,
      260173.7
     ],
     [
      470366.0,
      260141.9
     ],
     [
      470399.3,
      260139.1
     ],
     [
      470426.1,
      260145.5
     ],
     [
      470476.3,
      260170.1
     ],
     [
      470507.6,
      260182.3
     ],
     [
      470550.9,
      260196.1
     ],
     [
      470583.0,
      260201.4
     ],
     [
      470630.9,
      260205.6
     ],
     [
      470675.6,
      260201.6
     ],
     [
      470745.9,
      260191.6
     ],
     [
      470760.9,
      260190.4
     ],
     [
      470758.7,
      260176.1
     ],
     [
      470718.8,
      260092.9
     ],
     [
      470700.6,
      260056.9
     ],
     [
      470681.5,
      260000.1
     ],
     [
      470672.4,
      259972.5
     ],
     [
      470657.9,
      259926.8
     ],
     [
      470646.3,
      259893.6
     ],
     [
      470642.2,
      259877.3
     ],
     [
      470632.1,
      259830.4
     ],
     [
      470635.3,
      259815.0
     ],
     [
      470605.5,
      259788.3
     ],
     [
      470563.6,
      259745.2
     ],
     [
      470482.8,
      259721.3
     ],
     [
      470500.8,
      259636.9
     ],
     [
      470500.2,
      259577.5
     ],
     [
      470496.6,
      259489.7
     ],
     [
      470497.4,
      259478.6
     ],
     [
      470500.2,
      259467.1
     ],
     [
      470503.1,
      259459.7
     ],
     [
      470507.4,
      259450.7
     ],
     [
      470513.0,
      259440.6
     ],
     [
      470518.1,
      259432.6
     ],
     [
      470523.1,
      259426.1
     ],
     [
      470529.8,
      259418.2
     ],
     [
      470537.9,
      259409.8
     ],
     [
      470545.6,
      259402.9
     ],
     [
      470557.5,
      259394.1
     ],
     [
      470568.7,
      259388.1
     ],
     [
      470576.5,
      259385.1
     ],
     [
      470589.7,
      259380.8
     ],
     [
      470614.8,
      259373.3
     ],
     [
      470610.8,
      259360.9
     ],
     [
      470489.1,
      259380.0
     ],
     [
      470544.1,
      259291.2
     ],
     [
      470624.9,
      259156.6
     ],
     [
      470643.0,
      259128.4
     ],
     [
      470555.0,
      259086.6
     ],
     [
      470647.6,
      258945.2
     ],
     [
      470684.4,
      258811.7
     ],
     [
      470673.8,
      258810.8
     ],
     [
      470676.0,
      258758.5
     ],
     [
      470749.2,
      258628.3
     ],
     [
      470609.5,
      258609.0
     ],
     [
      470621.1,
      258516.6
     ],
     [
      470634.5,
      258432.8
     ],
     [
      470642.4,
      258364.6
     ],
     [
      470621.7,
      258330.5
     ],
     [
      470655.9,
      258309.5
     ],
     [
      470696.3,
      258283.4
     ],
     [
      470759.3,
      258237.5
     ],
     [
      470782.4,
      258221.4
     ],
     [
      470836.1,
      258185.0
     ],
     [
      470897.1,
      258141.7
     ],
     [
      470971.1,
      258097.5
     ],
     [
      471051.2,
      258046.9
     ],
     [
      471105.9,
      258007.8
     ],
     [
      471146.5,
      257980.8
     ],
     [
      471217.3,
      257927.9
     ],
     [
      471292.8,
      257880.1
     ],
     [
      471346.6,
      257847.3
     ],
     [
      471373.8,
      257831.2
     ],
     [
      471429.1,
      257799.8
     ],
     [
      471478.6,
      257767.1
     ],
     [
      471577.3,
      257709.0
     ],
     [
      471606.1,
      257691.5
     ],
     [
      471661.6,
      257652.5
     ],
     [
      471684.1,
      257638.8
     ],
     [
      471731.1,
      257610.9
     ],
     [
      471802.4,
      257570.2
     ],
     [
      471846.8,
      257552.3
     ],
     [
      471904.9,
      257526.0
     ],
     [
      472019.2,
      257469.4
     ],
     [
      472083.5,
      257446.8
     ],
     [
      472164.0,
      257412.4
     ],
     [
      472244.6,
      257379.5
     ],
     [
      472301.1,
      257358.1
     ],
     [
      472344.2,
      257340.3
     ],
     [
      472484.0,
      257295.5
     ],
     [
      472526.1,
      257276.9
     ],
     [
      472579.6,
      257260.4
     ],
     [
      472627.8,
      257244.4
     ],
     [
      472688.5,
      257221.1
     ],
     [
      472727.4,
      257204.3
     ],
     [
      472761.6,
      257187.1
     ],
     [
      472767.8,
      257183.9
     ],
     [
      472768.5,
      257183.5
     ],
     [
      472820.6,
      257154.5
     ],
     [
      472920.1,
      257108.0
     ],
     [
      472971.3,
      257083.2
     ],
     [
      473024.8,
      257056.1
     ],
     [
      473077.2,
      257032.1
     ],
     [
      473084.9,
      257028.3
     ],
     [
      473124.5,
      257006.3
     ],
     [
      473153.0,
      256991.7
     ],
     [
      473170.7,
      256981.2
     ],
     [
      473204.0,
      256956.6
     ],
     [
      473232.9,
      256937.5
     ],
     [
      473265.6,
      256917.7
     ],
     [
      473295.6,
      256902.8
     ],
     [
      473308.4,
      256895.4
     ],
     [
      473376.7,
      256852.2
     ],
     [
      473439.1,
      256810.1
     ],
     [
      473501.1,
      256769.2
     ],
     [
      473503.8,
      256767.4
     ],
     [
      473516.8,
      256758.9
     ],
     [
      473528.7,
      256744.6
     ],
     [
      473577.5,
      256712.2
     ],
     [
      473640.4,
      256672.0
     ],
     [
      473736.1,
      256608.0
     ],
     [
      473725.3,
      256589.3
     ],
     [
      473749.9,
      256572.3
     ],
     [
      473757.7,
      256566.8
     ],
     [
      473768.7,
      256580.3
     ],
     [
      473813.5,
      256550.6
     ],
     [
      473861.9,
      256514.6
     ],
     [
      473877.9,
      256499.3
     ],
     [
      473909.1,
      256471.8
     ],
     [
      473916.3,
      256465.8
     ],
     [
      473954.0,
      256437.1
     ],
     [
      473977.5,
      256416.8
     ],
     [
      474005.6,
      256390.7
     ],
     [
      474044.2,
      256353.7
     ],
     [
      474080.6,
      256322.3
     ],
     [
      474095.0,
      256308.7
     ],
     [
      474114.9,
      256288.5
     ],
     [
      474126.8,
      256276.1
     ],
     [
      474173.2,
      256225.3
     ],
     [
      474214.0,
      256182.8
     ],
     [
      474265.1,
      256124.1
     ],
     [
      474277.9,
      256110.2
     ],
     [
      474292.1,
      256095.1
     ],
     [
      474377.5,
      256005.8
     ],
     [
      474427.2,
      255951.6
     ],
     [
      474494.3,
      255885.4
     ],
     [
      474546.6,
      255827.7
     ],
     [
      474589.8,
      255795.0
     ],
     [
      474615.9,
      255760.1
     ],
     [
      474662.5,
      255705.8
     ],
     [
      474716.5,
      255652.7
     ],
     [
      474749.5,
      255615.3
     ],
     [
      474772.3,
      255589.4
     ],
     [
      474804.6,
      255559.4
     ],
     [
      474838.1,
      255532.0
     ],
     [
      474860.1,
      255508.6
     ],
     [
      474880.8,
      255484.6
     ],
     [
      474935.0,
      255419.9
     ],
     [
      475000.0,
      255337.9
     ],
     [
      475043.6,
      255294.4
     ],
     [
      475091.5,
      255247.4
     ],
     [
      475122.6,
      255219.3
     ],
     [
      475168.8,
      255179.6
     ],
     [
      475213.7,
      255143.4
     ],
     [
      475275.1,
      255086.6
     ],
     [
      475347.5,
      255028.7
     ],
     [
      475385.6,
      255000.5
     ],
     [
      475516.8,
      254902.5
     ],
     [
      475585.1,
      254856.3
     ],
     [
      475611.8,
      254836.9
     ],
     [
      475686.9,
      254781.3
     ],
     [
      475682.8,
      254795.8
     ],
     [
      475672.5,
      254823.9
     ],
     [
      475669.0,
      254841.6
     ],
     [
      475682.9,
      255000.5
     ],
     [
      475683.5,
      255011.6
     ],
     [
      475691.0,
      255059.5
     ],
     [
      475694.2,
      255092.4
     ],
     [
      475702.5,
      255127.3
     ],
     [
      475702.8,
      255127.4
     ],
     [
      475706.8,
      255129.2
     ],
     [
      475711.8,
      255137.7
     ],
     [
      475708.7,
      255142.9
     ],
     [
      475708.4,
      255143.3
     ],
     [
      475719.8,
      255171.4
     ],
     [
      475731.0,
      255202.0
     ],
     [
      475745.3,
      255234.5
     ],
     [
      475760.1,
      255264.3
     ],
     [
      475776.1,
      255300.1
     ],
     [
      475812.0,
      255394.3
     ],
     [
      475820.3,
      255427.3
     ],
     [
      475827.8,
      255452.2
     ],
     [
      475832.8,
      255487.7
     ],
     [
      475835.4,
      255560.2
     ],
     [
      475835.0,
      255594.0
     ],
     [
      475834.1,
      255611.0
     ],
     [
      475828.2,
      255642.0
     ],
     [
      475827.1,
      255666.6
     ],
     [
      475826.8,
      255696.7
     ],
     [
      475823.2,
      255739.0
     ],
     [
      475818.1,
      255842.4
     ],
     [
      475807.5,
      255989.9
     ],
     [
      475834.6,
      255994.5
     ],
     [
      475859.0,
      256014.1
     ],
     [
      475869.3,
      256016.9
     ],
     [
      475875.9,
      256017.4
     ],
     [
      475883.3,
      256019.6
     ],
     [
      475889.5,
      256023.7
     ],
     [
      475901.0,
      256034.7
     ],
     [
      475906.7,
      256045.5
     ],
     [
      475912.5,
      256053.6
     ],
     [
      475922.8,
      256058.5
     ],
     [
      475938.2,
      256063.1
     ],
     [
      475973.3,
      256077.0
     ],
     [
      476006.2,
      256083.7
     ],
     [
      476016.3,
      256084.0
     ],
     [
      476030.2,
      256080.9
     ],
     [
      476043.7,
      256079.1
     ],
     [
      476053.4,
      256075.2
     ],
     [
      476059.3,
      256071.4
     ],
     [
      476074.6,
      256059.2
     ],
     [
      476081.3,
      256053.2
     ],
     [
      476087.1,
      256049.2
     ],
     [
      476093.3,
      256045.8
     ],
     [
      476104.4,
      256041.6
     ],
     [
      476124.2,
      256036.8
     ],
     [
      476137.0,
      256036.0
     ],
     [
      476152.1,
      256030.7
     ],
     [
      476156.3,
      256030.1
     ],
     [
      476161.1,
      256027.9
     ],
     [
      476163.5,
      256025.8
     ],
     [
      476165.8,
      256022.7
     ],
     [
      476167.2,
      256019.1
     ],
     [
      476167.1,
      256008.6
     ],
     [
      476168.3,
      256003.5
     ],
     [
      476169.8,
      255999.8
     ],
     [
      476173.5,
      255995.5
     ],
     [
      476176.2,
      255993.7
     ],
     [
      476183.0,
      255991.4
     ],
     [
      476196.6,
      255985.4
     ],
     [
      476207.4,
      255982.1
     ],
     [
      476214.0,
      255978.9
     ],
     [
      476219.7,
      255975.1
     ],
     [
      476228.8,
      255966.4
     ],
     [
      476232.6,
      255962.0
     ],
     [
      476240.1,
      255951.1
     ],
     [
      476244.1,
      255946.7
     ],
     [
      476247.7,
      255943.6
     ],
     [
      476257.4,
      255937.2
     ],
     [
      476269.7,
      255924.8
     ],
     [
      476303.5,
      255880.2
     ],
     [
      476314.2,
      255867.4
     ],
     [
      476319.5,
      255862.1
     ],
     [
      476325.0,
      255857.0
     ],
     [
      476354.5,
      255839.6
     ],
     [
      476366.2,
      255833.1
     ],
     [
      476379.8,
      255827.1
     ],
     [
      476390.8,
      255825.7
     ],
     [
      476405.1,
      255827.1
     ],
     [
      476417.8,
      255834.4
     ],
     [
      476421.0,
      255841.2
     ],
     [
      476422.0,
      255845.5
     ],
     [
      476422.5,
      255853.3
     ],
     [
      476428.7,
      255863.6
     ],
     [
      476431.0,
      255865.7
     ],
     [
      476434.3,
      255867.7
     ],
     [
      476438.1,
      255868.5
     ],
     [
      476442.2,
      255868.1
     ],
     [
      476446.5,
      255866.7
     ],
     [
      476450.2,
      255864.6
     ],
     [
      476451.7,
      255863.2
     ],
     [
      476453.0,
      255856.7
     ],
     [
      476445.0,
      255845.2
     ],
     [
      476453.7,
      255830.2
     ],
     [
      476457.0,
      255817.6
     ],
     [
      476463.4,
      255808.4
     ],
     [
      476465.7,
      255807.0
     ],
     [
      476469.6,
      255805.7
     ],
     [
      476473.6,
      255805.9
     ],
     [
      476477.3,
      255807.6
     ],
     [
      476480.3,
      255810.6
     ],
     [
      476482.1,
      255814.1
     ],
     [
      476482.6,
      255817.7
     ],
     [
      476481.7,
      255821.8
     ],
     [
      476479.3,
      255827.1
     ],
     [
      476474.2,
      255835.1
     ],
     [
      476473.5,
      255838.4
     ],
     [
      476473.7,
      255841.2
     ],
     [
      476474.7,
      255843.7
     ],
     [
      476476.3,
      255845.8
     ],
     [
      476478.9,
      255847.4
     ],
     [
      476482.2,
      255848.7
     ],
     [
      476486.2,
      255849.4
     ],
     [
      476493.0,
      255849.4
     ],
     [
      476512.7,
      255854.5
     ],
     [
      476519.8,
      255855.5
     ],
     [
      476541.8,
      255852.4
     ],
     [
      476545.2,
      255851.2
     ],
     [
      476548.4,
      255849.5
     ],
     [
      476550.4,
      255847.8
     ],
     [
      476554.1,
      255841.7
     ],
     [
      476554.8,
      255839.1
     ],
     [
      476554.7,
      255836.5
     ],
     [
      476553.6,
      255833.6
     ],
     [
      476551.6,
      255831.3
     ],
     [
      476546.2,
      255828.1
     ],
     [
      476544.9,
      255826.5
     ],
     [
      476543.3,
      255822.5
     ],
     [
      476543.7,
      255818.8
     ],
     [
      476545.9,
      255815.1
     ],
     [
      476553.3,
      255810.9
     ],
     [
      476555.3,
      255809.1
     ],
     [
      476557.3,
      255806.3
     ],
     [
      476568.1,
      255783.4
     ],
     [
      476573.9,
      255780.6
     ],
     [
      476580.7,
      255779.6
     ],
     [
      476585.3,
      255778.1
     ],
     [
      476591.1,
      255777.5
     ],
     [
      476598.6,
      255779.8
     ],
     [
      476605.2,
      255784.1
     ],
     [
      476609.4,
      255785.7
     ],
     [
      476617.0,
      255787.2
     ],
     [
      476636.4,
      255788.4
     ],
     [
      476639.7,
      255789.1
     ],
     [
      476652.5,
      255792.9
     ],
     [
      476658.7,
      255797.0
     ],
     [
      476663.8,
      255799.8
     ],
     [
      476672.1,
      255804.4
     ],
     [
      476687.6,
      255811.1
     ],
     [
      476701.6,
      255814.0
     ],
     [
      476711.2,
      255815.0
     ],
     [
      476715.6,
      255815.0
     ],
     [
      476722.0,
      255813.7
     ],
     [
      476735.6,
      255810.0
     ],
     [
      476774.7,
      255794.6
     ],
     [
      476774.1,
      255812.8
     ],
     [
      476778.5,
      255855.2
     ],
     [
      476778.8,
      255867.1
     ],
     [
      476778.0,
      255899.4
     ],
     [
      476775.4,
      255914.3
     ],
     [
      476779.5,
      255924.9
     ],
     [
      476788.8,
      255946.2
     ],
     [
      476794.1,
      255957.1
     ],
     [
      476809.7,
      255985.2
     ],
     [
      476811.5,
      256001.5
     ],
     [
      476808.3,
      256017.5
     ],
     [
      476808.3,
      256034.7
     ],
     [
      476807.0,
      256051.5
     ],
     [
      476825.1,
      256096.0
     ],
     [
      476838.7,
      256118.0
     ],
     [
      476850.4,
      256153.2
     ],
     [
      476854.1,
      256170.6
     ],
     [
      476860.4,
      256177.9
     ],
     [
      476873.1,
      256185.4
     ],
     [
      476894.9,
      256222.3
     ],
     [
      476910.6,
      256246.3
     ],
     [
      476916.1,
      256256.2
     ],
     [
      476921.1,
      256265.7
     ],
     [
      476925.3,
      256280.0
     ],
     [
      476931.8,
      256287.1
     ],
     [
      476942.7,
      256292.8
     ],
     [
      476949.1,
      256293.6
     ],
     [
      476954.7,
      256291.4
     ],
     [
      476961.6,
      256291.9
     ],
     [
      476974.2,
      256298.8
     ],
     [
      476986.2,
      256312.9
     ],
     [
      476991.3,
      256320.5
     ],
     [
      477004.3,
      256342.7
     ],
     [
      477007.1,
      256346.2
     ],
     [
      477010.1,
      256349.7
     ],
     [
      477032.0,
      256370.2
     ],
     [
      477038.5,
      256383.5
     ],
     [
      477046.5,
      256389.8
     ],
     [
      477057.1,
      256392.2
     ],
     [
      477066.2,
      256395.8
     ],
     [
      477084.8,
      256411.1
     ],
     [
      477093.6,
      256422.4
     ],
     [
      477098.6,
      256427.6
     ],
     [
      477104.1,
      256432.6
     ],
     [
      477117.2,
      256441.7
     ],
     [
      477126.4,
      256450.1
     ],
     [
      477135.7,
      256459.0
     ],
     [
      477152.9,
      256478.3
     ],
     [
      477176.9,
      256513.7
     ],
     [
      477199.3,
      256530.1
     ],
     [
      477215.8,
      256534.9
     ],
     [
      477251.6,
      256560.9
     ],
     [
      477280.5,
      256577.3
     ],
     [
      477296.7,
      256590.3
     ],
     [
      477306.9,
      256601.7
     ],
     [
      477317.5,
      256610.1
     ],
     [
      477332.8,
      256610.2
     ],
     [
      477344.9,
      256617.6
     ],
     [
      477361.3,
      256640.4
     ],
     [
      477391.9,
      256625.4
     ],
     [
      477491.4,
      256711.9
     ],
     [
      477655.8,
      256852.5
     ],
     [
      477625.4,
      256887.4
     ],
     [
      477408.2,
      257009.1
     ],
     [
      477315.2,
      257017.7
     ],
     [
      477230.9,
      257007.3
     ],
     [
      477236.1,
      257077.9
     ],
     [
      477217.2,
      257148.4
     ],
     [
      477213.7,
      257234.5
     ],
     [
      477198.2,
      257353.2
     ],
     [
      477201.7,
      257422.0
     ],
     [
      477230.9,
      257480.5
     ],
     [
      477268.8,
      257520.1
     ],
     [
      477339.3,
      257552.8
     ],
     [
      477485.6,
      257573.4
     ],
     [
      477585.4,
      257595.8
     ],
     [
      477618.1,
      257601.0
     ],
     [
      477459.8,
      258013.9
     ],
     [
      477365.1,
      258179.1
     ],
     [
      477165.5,
      258426.9
     ],
     [
      477014.1,
      258567.9
     ],
     [
      476873.0,
      258743.5
     ],
     [
      476993.5,
      258953.4
     ],
     [
      477175.9,
      259325.0
     ],
     [
      477317.0,
      259717.3
     ],
     [
      477447.7,
      259827.4
     ],
     [
      477822.9,
      260054.6
     ],
     [
      478242.8,
      260237.0
     ],
     [
      478487.1,
      260347.1
     ],
     [
      478717.7,
      260541.5
     ],
     [
      479142.5,
      261003.5
     ],
     [
      479284.1,
      261157.0
     ],
     [
      479390.4,
      261251.4
     ],
     [
      479512.4,
      261385.2
     ],
     [
      479681.6,
      261503.3
     ],
     [
      479821.7,
      261567.8
     ],
     [
      479941.4,
      261593.8
     ],
     [
      480083.1,
      261597.7
     ],
     [
      480272.0,
      261574.1
     ],
     [
      480504.2,
      261554.4
     ],
     [
      480624.2,
      261588.9
     ],
     [
      480632.1,
      261597.7
     ],
     [
      480686.2,
      261614.4
     ],
     [
      480687.2,
      261615.4
     ],
     [
      480732.5,
      261636.1
     ],
     [
      480797.4,
      261657.7
     ],
     [
      480836.8,
      261684.3
     ],
     [
      480870.2,
      261700.0
     ],
     [
      480911.5,
      261736.4
     ],
     [
      480995.2,
      261793.5
     ],
     [
      481046.3,
      261827.0
     ],
     [
      481085.7,
      261862.4
     ],
     [
      481143.7,
      261898.8
     ],
     [
      481208.7,
      261950.9
     ],
     [
      481331.7,
      262026.7
     ],
     [
      481412.3,
      262079.8
     ],
     [
      481515.7,
      262139.8
     ],
     [
      481568.8,
      262170.3
     ],
     [
      481637.7,
      262202.8
     ],
     [
      481698.7,
      262248.0
     ],
     [
      481777.4,
      262287.4
     ],
     [
      481847.2,
      262324.8
     ],
     [
      481903.3,
      262341.5
     ],
     [
      481919.1,
      262402.5
     ],
     [
      481924.0,
      262483.2
     ],
     [
      481920.0,
      262608.1
     ],
     [
      481928.9,
      262678.9
     ],
     [
      481925.0,
      262752.7
     ],
     [
      481919.1,
      262831.4
     ],
     [
      481931.8,
      262877.7
     ],
     [
      481896.4,
      262977.0
     ],
     [
      481899.4,
      263071.5
     ],
     [
      481901.3,
      263130.5
     ],
     [
      481895.4,
      263203.3
     ],
     [
      481891.5,
      263290.9
     ],
     [
      481870.8,
      263340.1
     ],
     [
      481865.9,
      263371.5
     ],
     [
      481809.8,
      263426.6
     ],
     [
      481791.1,
      263497.5
     ],
     [
      481796.1,
      263585.0
     ],
     [
      481772.5,
      263689.3
     ],
     [
      481751.7,
      263760.4
     ],
     [
      481761.5,
      263786.1
     ],
     [
      481776.6,
      263819.9
     ],
     [
      481772.5,
      263871.3
     ],
     [
      481751.8,
      263925.4
     ],
     [
      481726.2,
      264026.8
     ],
     [
      481662.3,
      264124.2
     ],
     [
      481607.2,
      264257.0
     ],
     [
      481590.4,
      264308.1
     ],
     [
      481508.8,
      264407.5
     ],
     [
      481449.7,
      264536.4
     ],
     [
      481413.3,
      264615.1
     ],
     [
      481375.0,
      264703.6
     ],
     [
      481374.0,
      264761.7
     ],
     [
      481347.3,
      264797.1
     ],
     [
      481307.1,
      264797.1
     ],
     [
      481203.8,
      264784.3
     ],
     [
      481035.5,
      264770.5
     ],
     [
      480946.0,
      264748.9
     ],
     [
      480926.0,
      264759.5
     ],
     [
      480892.8,
      264802.0
     ],
     [
      480885.4,
      264822.7
     ],
     [
      480860.4,
      264816.8
     ],
     [
      480784.3,
      264754.0
     ],
     [
      480677.8,
      264666.4
     ],
     [
      480604.6,
      264673.7
     ],
     [
      480559.1,
      264725.6
     ],
     [
      480475.7,
      264825.1
     ],
     [
      480395.1,
      264922.0
     ],
     [
      480336.9,
      264988.0
     ],
     [
      480265.3,
      265082.5
     ],
     [
      480259.4,
      265114.5
     ],
     [
      480231.6,
      265171.9
     ],
     [
      480142.4,
      265254.4
     ],
     [
      480122.4,
      265296.9
     ],
     [
      480115.0,
      265337.9
     ],
     [
      480099.8,
      265395.3
     ],
     [
      480021.5,
      265390.5
     ],
     [
      479969.9,
      265377.6
     ],
     [
      479902.2,
      265354.8
     ],
     [
      479824.3,
      265304.7
     ],
     [
      479776.6,
      265265.3
     ],
     [
      479748.5,
      265217.2
     ],
     [
      479733.8,
      265110.9
     ],
     [
      479704.3,
      265022.4
     ],
     [
      479690.5,
      264957.5
     ],
     [
      479671.8,
      264868.9
     ],
     [
      479651.1,
      264793.2
     ],
     [
      479643.3,
      264739.1
     ],
     [
      479627.5,
      264675.1
     ],
     [
      479622.6,
      264661.3
     ],
     [
      479533.1,
      264684.0
     ],
     [
      479429.8,
      264708.6
     ],
     [
      479234.0,
      264777.4
     ],
     [
      479124.7,
      264820.7
     ],
     [
      479069.6,
      264833.5
     ],
     [
      479012.6,
      264861.0
     ],
     [
      478941.7,
      264885.6
     ],
     [
      478920.1,
      264923.0
     ],
     [
      478890.6,
      264950.6
     ],
     [
      478867.2,
      264952.5
     ],
     [
      478870.2,
      264993.0
     ],
     [
      478876.3,
      265064.2
     ],
     [
      478879.7,
      265143.2
     ],
     [
      478890.1,
      265267.0
     ],
     [
      478788.8,
      265289.5
     ],
     [
      478785.2,
      265284.2
     ],
     [
      478719.4,
      265187.6
     ],
     [
      478602.4,
      265020.0
     ],
     [
      478600.5,
      265021.4
     ],
     [
      478401.7,
      265170.1
     ],
     [
      478448.6,
      265372.7
     ],
     [
      478382.9,
      265386.4
     ],
     [
      478351.0,
      265396.5
     ],
     [
      478301.0,
      265414.6
     ],
     [
      478231.6,
      265439.0
     ],
     [
      478151.6,
      265473.4
     ],
     [
      478150.2,
      265470.3
     ],
     [
      478142.9,
      265472.2
     ],
     [
      478151.1,
      265484.8
     ],
     [
      478159.0,
      265497.7
     ],
     [
      478153.0,
      265500.3
     ],
     [
      478137.3,
      265506.9
     ],
     [
      478105.1,
      265518.2
     ],
     [
      478077.4,
      265529.9
     ],
     [
      478060.7,
      265534.9
     ],
     [
      478056.6,
      265531.1
     ],
     [
      478038.6,
      265517.3
     ],
     [
      478013.4,
      265497.1
     ],
     [
      477989.1,
      265475.0
     ],
     [
      477960.8,
      265451.7
     ],
     [
      477935.6,
      265430.6
     ],
     [
      477902.5,
      265402.2
     ],
     [
      477881.1,
      265383.6
     ],
     [
      477880.8,
      265383.9
     ],
     [
      477833.1,
      265341.6
     ],
     [
      477798.4,
      265315.0
     ],
     [
      477724.6,
      265253.3
     ],
     [
      477656.9,
      265194.5
     ],
     [
      477542.4,
      265100.4
     ],
     [
      477540.4,
      265098.7
     ],
     [
      477524.3,
      265117.0
     ],
     [
      477494.7,
      265148.1
     ],
     [
      477455.9,
      265185.0
     ],
     [
      477429.9,
      265212.5
     ],
     [
      477379.6,
      265255.3
     ],
     [
      477360.8,
      265275.1
     ],
     [
      477334.6,
      265298.5
     ],
     [
      477310.2,
      265321.2
     ],
     [
      477303.0,
      265328.0
     ],
     [
      477289.4,
      265342.5
     ],
     [
      477277.2,
      265353.4
     ],
     [
      477265.6,
      265361.6
     ],
     [
      477249.0,
      265379.2
     ],
     [
      477213.1,
      265423.2
     ],
     [
      477191.7,
      265442.1
     ],
     [
      477157.2,
      265471.5
     ],
     [
      477144.5,
      265482.0
     ],
     [
      477133.0,
      265490.2
     ],
     [
      477121.3,
      265498.2
     ],
     [
      477093.0,
      265514.7
     ],
     [
      477062.4,
      265527.5
     ],
     [
      477046.2,
      265533.5
     ],
     [
      477036.2,
      265536.4
     ],
     [
      477026.3,
      265539.1
     ],
     [
      477002.3,
      265544.0
     ],
     [
      476981.1,
      265545.7
     ],
     [
      476965.0,
      265545.4
     ],
     [
      476936.7,
      265547.4
     ],
     [
      476913.8,
      265546.5
     ],
     [
      476882.9,
      265540.8
     ],
     [
      476851.4,
      265531.3
     ],
     [
      476840.3,
      265524.1
     ],
     [
      476815.7,
      265507.0
     ],
     [
      476790.6,
      265492.4
     ],
     [
      476759.3,
      265466.0
     ],
     [
      476720.7,
      265438.5
     ],
     [
      476705.8,
      265424.9
     ],
     [
      476671.0,
      265391.4
     ],
     [
      476649.2,
      265366.1
     ],
     [
      476633.7,
      265354.6
     ],
     [
      476623.7,
      265350.0
     ],
     [
      476598.5,
      265334.4
     ],
     [
      476577.7,
      265316.4
     ],
     [
      476555.0,
      265292.8
     ],
     [
      476539.0,
      265269.0
     ],
     [
      476528.6,
      265275.0
     ],
     [
      476518.8,
      265259.9
     ],
     [
      476509.6,
      265243.4
     ],
     [
      476499.2,
      265233.5
     ],
     [
      476493.4,
      265227.1
     ],
     [
      476481.3,
      265212.6
     ],
     [
      476457.0,
      265180.7
     ],
     [
      476408.7,
      265108.6
     ]
    ]
   }
  }
 ]
}